{
  "type": "FeatureCollection",
  "features": [
    {
      "type": "Feature",
      "properties": {
        "norad_id": 66907,
        "name": "1998-067XT",
        "group": "last-30-days",
        "lat": 7.673647219300338,
        "lon": 144.4119151291518,
        "alt_km": 414.1156893633788,
        "timestamp": "2025-12-13T13:34:33.866487+00:00",
        "meta_object_name": "1998-067XT",
        "meta_object_id": "1998-067XT",
        "meta_epoch": "2025-12-12T17:26:16.026432",
        "meta_mean_motion": 15.5143678,
        "meta_eccentricity": 0.00044769,
        "meta_inclination": 51.6298,
        "meta_ra_of_asc_node": 142.4529,
        "meta_arg_of_pericenter": 226.787,
        "meta_mean_anomaly": 133.2746,
        "meta_ephemeris_type": 0,
        "meta_classification_type": "U",
        "meta_norad_cat_id": 66907,
        "meta_element_set_no": 999,
        "meta_rev_at_epoch": 161,
        "meta_bstar": 0.0013978666,
        "meta_mean_motion_dot": 0.0008442,
        "meta_mean_motion_ddot": 0,
        "tle_line1": "1 66907U 98067XT  25346.72657438  .00084420  00000+0  13979-2 0  9998",
        "tle_line2": "2 66907  51.6298 142.4529 0004476 226.7870 133.2746 15.51436780  1615"
      },
      "geometry": {
        "type": "Point",
        "coordinates": [
          144.4119151291518,
          7.673647219300338
        ]
      }
    },
    {
      "type": "Feature",
      "properties": {
        "norad_id": 66908,
        "name": "1998-067XU",
        "group": "last-30-days",
        "lat": 9.319044342720082,
        "lon": 145.7496908015425,
        "alt_km": 413.74886429388334,
        "timestamp": "2025-12-13T13:34:33.866496+00:00",
        "meta_object_name": "1998-067XU",
        "meta_object_id": "1998-067XU",
        "meta_epoch": "2025-12-12T22:04:02.533728",
        "meta_mean_motion": 15.51556229,
        "meta_eccentricity": 0.0004575,
        "meta_inclination": 51.6297,
        "meta_ra_of_asc_node": 141.4904,
        "meta_arg_of_pericenter": 226.416,
        "meta_mean_anomaly": 133.645,
        "meta_ephemeris_type": 0,
        "meta_classification_type": "U",
        "meta_norad_cat_id": 66908,
        "meta_element_set_no": 999,
        "meta_rev_at_epoch": 164,
        "meta_bstar": 0.0015461789,
        "meta_mean_motion_dot": 0.00093943,
        "meta_mean_motion_ddot": 0,
        "tle_line1": "1 66908U 98067XU  25346.91947377  .00093943  00000+0  15462-2 0  9993",
        "tle_line2": "2 66908  51.6297 141.4904 0004575 226.4160 133.6450 15.51556229  1640"
      },
      "geometry": {
        "type": "Point",
        "coordinates": [
          145.7496908015425,
          9.319044342720082
        ]
      }
    },
    {
      "type": "Feature",
      "properties": {
        "norad_id": 66909,
        "name": "SILVERSAT",
        "group": "last-30-days",
        "lat": 11.156615601336107,
        "lon": 147.26395184467765,
        "alt_km": 413.1016473697382,
        "timestamp": "2025-12-13T13:34:33.866505+00:00",
        "meta_object_name": "SILVERSAT",
        "meta_object_id": "1998-067XV",
        "meta_epoch": "2025-12-12T22:03:29.727648",
        "meta_mean_motion": 15.51661311,
        "meta_eccentricity": 0.00044499,
        "meta_inclination": 51.6297,
        "meta_ra_of_asc_node": 141.4878,
        "meta_arg_of_pericenter": 228.6613,
        "meta_mean_anomaly": 131.3994,
        "meta_ephemeris_type": 0,
        "meta_classification_type": "U",
        "meta_norad_cat_id": 66909,
        "meta_element_set_no": 999,
        "meta_rev_at_epoch": 164,
        "meta_bstar": 0.0015570359,
        "meta_mean_motion_dot": 0.00094974,
        "meta_mean_motion_ddot": 0,
        "tle_line1": "1 66909U 98067XV  25346.91909407  .00094974  00000+0  15570-2 0  9991",
        "tle_line2": "2 66909  51.6297 141.4878 0004449 228.6613 131.3994 15.51661311  1645"
      },
      "geometry": {
        "type": "Point",
        "coordinates": [
          147.26395184467765,
          11.156615601336107
        ]
      }
    },
    {
      "type": "Feature",
      "properties": {
        "norad_id": 66910,
        "name": "1998-067XW",
        "group": "last-30-days",
        "lat": 17.799785317713454,
        "lon": 152.9932609480131,
        "alt_km": 412.8823833764445,
        "timestamp": "2025-12-13T13:34:33.866514+00:00",
        "meta_object_name": "1998-067XW",
        "meta_object_id": "1998-067XW",
        "meta_epoch": "2025-12-12T20:28:35.609952",
        "meta_mean_motion": 15.51770354,
        "meta_eccentricity": 0.00052525,
        "meta_inclination": 51.6298,
        "meta_ra_of_asc_node": 141.7982,
        "meta_arg_of_pericenter": 209.4111,
        "meta_mean_anomaly": 150.6584,
        "meta_ephemeris_type": 0,
        "meta_classification_type": "U",
        "meta_norad_cat_id": 66910,
        "meta_element_set_no": 999,
        "meta_rev_at_epoch": 163,
        "meta_bstar": 0.001333891,
        "meta_mean_motion_dot": 0.00081487,
        "meta_mean_motion_ddot": 0,
        "tle_line1": "1 66910U 98067XW  25346.85318993  .00081487  00000+0  13339-2 0  9996",
        "tle_line2": "2 66910  51.6298 141.7982 0005252 209.4111 150.6584 15.51770354  1636"
      },
      "geometry": {
        "type": "Point",
        "coordinates": [
          152.9932609480131,
          17.799785317713454
        ]
      }
    },
    {
      "type": "Feature",
      "properties": {
        "norad_id": 66911,
        "name": "1998-067XX",
        "group": "last-30-days",
        "lat": 21.389137207344636,
        "lon": 156.32536219601243,
        "alt_km": 411.35609355667657,
        "timestamp": "2025-12-13T13:34:33.866524+00:00",
        "meta_object_name": "1998-067XX",
        "meta_object_id": "1998-067XX",
        "meta_epoch": "2025-12-12T17:22:05.659968",
        "meta_mean_motion": 15.51996459,
        "meta_eccentricity": 0.0004979,
        "meta_inclination": 51.6296,
        "meta_ra_of_asc_node": 142.4333,
        "meta_arg_of_pericenter": 210.3883,
        "meta_mean_anomaly": 149.6819,
        "meta_ephemeris_type": 0,
        "meta_classification_type": "U",
        "meta_norad_cat_id": 66911,
        "meta_element_set_no": 999,
        "meta_rev_at_epoch": 160,
        "meta_bstar": 0.0015692424,
        "meta_mean_motion_dot": 0.00096916,
        "meta_mean_motion_ddot": 0,
        "tle_line1": "1 66911U 98067XX  25346.72367662  .00096916  00000+0  15692-2 0  9997",
        "tle_line2": "2 66911  51.6296 142.4333 0004979 210.3883 149.6819 15.51996459  1607"
      },
      "geometry": {
        "type": "Point",
        "coordinates": [
          156.32536219601243,
          21.389137207344636
        ]
      }
    },
    {
      "type": "Feature",
      "properties": {
        "norad_id": 66912,
        "name": "1998-067XY",
        "group": "last-30-days",
        "lat": 2.7351690055780593,
        "lon": 140.4653587500464,
        "alt_km": 415.7441631748716,
        "timestamp": "2025-12-13T13:34:33.866535+00:00",
        "meta_object_name": "1998-067XY",
        "meta_object_id": "1998-067XY",
        "meta_epoch": "2025-12-12T17:27:38.564352",
        "meta_mean_motion": 15.5112646,
        "meta_eccentricity": 0.00045766,
        "meta_inclination": 51.63,
        "meta_ra_of_asc_node": 142.4585,
        "meta_arg_of_pericenter": 223.461,
        "meta_mean_anomaly": 136.6019,
        "meta_ephemeris_type": 0,
        "meta_classification_type": "U",
        "meta_norad_cat_id": 66912,
        "meta_element_set_no": 999,
        "meta_rev_at_epoch": 160,
        "meta_bstar": 0.0011286003,
        "meta_mean_motion_dot": 0.00067169,
        "meta_mean_motion_ddot": 0,
        "tle_line1": "1 66912U 98067XY  25346.72752968  .00067169  00000+0  11286-2 0  9998",
        "tle_line2": "2 66912  51.6300 142.4585 0004576 223.4610 136.6019 15.51126460  1604"
      },
      "geometry": {
        "type": "Point",
        "coordinates": [
          140.4653587500464,
          2.7351690055780593
        ]
      }
    },
    {
      "type": "Feature",
      "properties": {
        "norad_id": 66913,
        "name": "2025-284A",
        "group": "last-30-days",
        "lat": -71.47274163756805,
        "lon": -20.962995150402513,
        "alt_km": 511.0258774391814,
        "timestamp": "2025-12-13T13:34:33.866545+00:00",
        "meta_object_name": "2025-284A",
        "meta_object_id": "2025-284A",
        "meta_epoch": "2025-12-12T22:13:57.389088",
        "meta_mean_motion": 15.18972069,
        "meta_eccentricity": 0.00120417,
        "meta_inclination": 80.4044,
        "meta_ra_of_asc_node": 129.5282,
        "meta_arg_of_pericenter": 204.1286,
        "meta_mean_anomaly": 155.9379,
        "meta_ephemeris_type": 0,
        "meta_classification_type": "U",
        "meta_norad_cat_id": 66913,
        "meta_element_set_no": 999,
        "meta_rev_at_epoch": 115,
        "meta_bstar": 0.00062774238,
        "meta_mean_motion_dot": 0.00013177,
        "meta_mean_motion_ddot": 0,
        "tle_line1": "1 66913U 25284A   25346.92635867  .00013177  00000+0  62774-3 0  9999",
        "tle_line2": "2 66913  80.4044 129.5282 0012041 204.1286 155.9379 15.18972069  1151"
      },
      "geometry": {
        "type": "Point",
        "coordinates": [
          -20.962995150402513,
          -71.47274163756805
        ]
      }
    }
  ]
}